{"type":"Feature","properties":{"name":"Lichterfelde","officialId":"DEBE06YYA0000005","sourceUpdatedAt":"2026-08-01T08:50:54.266Z"},"geometry":{"type":"MultiPolygon","coordinates":[[[[13.30709556,52.45893192],[13.30715562,52.45915201],[13.30671494,52.45907323],[13.30564599,52.45888213],[13.30479325,52.45872967],[13.30425632,52.45863367],[13.30425455,52.45861699],[13.30425152,52.45860039],[13.30424729,52.45858387],[13.30424182,52.4585675],[13.30423514,52.45855129],[13.30422795,52.45853902],[13.30422002,52.45852692],[13.3042114,52.45851499],[13.30420862,52.45851035],[13.30420561,52.45850577],[13.30420242,52.45850124],[13.30418582,52.45848454],[13.30416817,52.45846824],[13.30414948,52.45845239],[13.30412979,52.458437],[13.30410914,52.45842208],[13.30410864,52.4584225],[13.30410814,52.45842291],[13.30410765,52.45842334],[13.30410521,52.45842275],[13.30410276,52.45842218],[13.30410031,52.45842161],[13.30409574,52.45841957],[13.30409115,52.45841753],[13.30408655,52.45841553],[13.30404852,52.45839812],[13.30401004,52.45838111],[13.30397111,52.45836446],[13.30397147,52.45836417],[13.30397183,52.45836387],[13.30397216,52.45836357],[13.30397053,52.45836235],[13.30396887,52.45836115],[13.30396718,52.45835996],[13.30395967,52.45835769],[13.30395213,52.45835545],[13.30394458,52.45835324],[13.30391714,52.45834744],[13.30388936,52.45834231],[13.30386127,52.45833786],[13.3038329,52.45833407],[13.30381546,52.45833218],[13.3037979,52.45833081],[13.30378024,52.45832998],[13.30376253,52.45832966],[13.30374481,52.45832987],[13.30371774,52.45833041],[13.30369071,52.45833162],[13.30366379,52.45833349],[13.30363702,52.45833602],[13.30361044,52.45833921],[13.30339562,52.45813412],[13.30288137,52.45764312],[13.30283263,52.45759659],[13.30268793,52.45745825],[13.30267086,52.45744195],[13.30261775,52.45739118],[13.30257316,52.45734855],[13.30218021,52.45697294],[13.30217231,52.45696538],[13.30214531,52.45693957],[13.30167054,52.45648575],[13.30155603,52.45637629],[13.30150307,52.45632567],[13.30117607,52.45601308],[13.30105928,52.45590135],[13.29962653,52.45453059],[13.29947798,52.45438909],[13.29925011,52.45417153],[13.29900648,52.45393891],[13.29859911,52.45355009],[13.29845451,52.45341273],[13.29810513,52.45307926],[13.29789451,52.45287854],[13.2977112,52.4527036],[13.29751286,52.4525146],[13.29719883,52.45221509],[13.2971017,52.45212442],[13.29697789,52.45200562],[13.2969218,52.4519518],[13.29686524,52.45189752],[13.29677441,52.45181036],[13.29661499,52.45165899],[13.29645573,52.45150777],[13.29615271,52.45122006],[13.29598572,52.45106151],[13.29584468,52.4509025],[13.29581756,52.45086927],[13.29549115,52.4504771],[13.29533186,52.45028305],[13.29519703,52.45011921],[13.29509463,52.44994584],[13.29487695,52.44955413],[13.29468785,52.44921399],[13.29456044,52.44898483],[13.29446611,52.44881193],[13.29427785,52.44846687],[13.29416715,52.44826793],[13.29390556,52.44779783],[13.29378897,52.44759021],[13.29369766,52.44742582],[13.29357846,52.44721125],[13.29345691,52.44699244],[13.2933234,52.44675212],[13.29316801,52.44647247],[13.29318638,52.4464549],[13.29338124,52.44626825],[13.29353159,52.4461241],[13.29366593,52.44599524],[13.29376835,52.44598062],[13.29367538,52.44594639],[13.29322822,52.44578175],[13.29322339,52.44577993],[13.29323005,52.44577312],[13.29309894,52.44572539],[13.2930927,52.44573175],[13.29299916,52.44569598],[13.29271139,52.4455912],[13.29246763,52.44550137],[13.29218912,52.44539869],[13.29203082,52.44534034],[13.29189696,52.44529099],[13.291645,52.44519817],[13.29150582,52.44514522],[13.29103779,52.44497206],[13.29076212,52.44486616],[13.29053853,52.44478027],[13.29023974,52.44466213],[13.29000782,52.44456653],[13.28968347,52.44443707],[13.28934986,52.44430392],[13.289041,52.44419126],[13.28891381,52.44414397],[13.28874257,52.44408149],[13.28863566,52.44404164],[13.2884827,52.44398585],[13.28845273,52.44397482],[13.28833294,52.44393078],[13.28809846,52.44384455],[13.28773491,52.44371088],[13.28740746,52.44358939],[13.2871684,52.44350255],[13.28691968,52.44340946],[13.28684724,52.44338224],[13.28677445,52.44335538],[13.28670134,52.44332885],[13.28658692,52.44328726],[13.28647193,52.44324628],[13.28635637,52.44320589],[13.28624026,52.4431661],[13.28612359,52.44312691],[13.28600639,52.44308834],[13.28592784,52.44306299],[13.28584901,52.44303796],[13.28576991,52.44301325],[13.28474924,52.44269649],[13.28452155,52.44262511],[13.28430427,52.44255708],[13.28404226,52.44247499],[13.28378009,52.44239281],[13.28319269,52.44220895],[13.28311538,52.44218473],[13.28308473,52.44209792],[13.28304097,52.44184284],[13.28301638,52.44177096],[13.28297758,52.44165653],[13.2826508,52.44069473],[13.28261846,52.44059938],[13.28272481,52.44048124],[13.28250789,52.44040827],[13.28242856,52.44034262],[13.2823594,52.44013842],[13.28216181,52.43955481],[13.28210801,52.43939593],[13.28213273,52.43939276],[13.2821076,52.43931631],[13.28208904,52.43931948],[13.28207266,52.4392709],[13.28206934,52.43926254],[13.28206857,52.43926226],[13.28206571,52.43925361],[13.28193967,52.43888194],[13.28198953,52.43889978],[13.28206055,52.43886216],[13.28218441,52.43880069],[13.28218018,52.43879754],[13.28230874,52.43873545],[13.28218492,52.43864154],[13.28210653,52.43868013],[13.28199528,52.43850349],[13.28194007,52.43853056],[13.28187463,52.43834183],[13.28178662,52.4380877],[13.2817252,52.43791174],[13.28166378,52.43773578],[13.28160238,52.43755982],[13.28154096,52.43738387],[13.28148709,52.43739135],[13.28137089,52.43703891],[13.28133139,52.436919],[13.28130352,52.43683444],[13.28127565,52.43674998],[13.28124778,52.43666533],[13.28121993,52.43658077],[13.28119206,52.43649612],[13.28116419,52.43641157],[13.28115153,52.43641333],[13.28112484,52.43632869],[13.28109831,52.43624396],[13.2810557,52.43610841],[13.28102385,52.43600739],[13.28099199,52.43590674],[13.28096029,52.43580545],[13.28093203,52.43571505],[13.28095396,52.43552424],[13.28088394,52.43530261],[13.28082813,52.43512567],[13.28076508,52.43493137],[13.28070251,52.43473492],[13.2806983,52.43472168],[13.28064389,52.43454235],[13.28058722,52.4343629],[13.28052887,52.43418395],[13.28047241,52.43400482],[13.28036724,52.43367127],[13.28033318,52.4335563],[13.28026671,52.43334817],[13.28023487,52.43324855],[13.2802004,52.43314065],[13.28004766,52.43311999],[13.28003036,52.43311391],[13.28001223,52.43304458],[13.28005444,52.43304173],[13.27988687,52.43262561],[13.27975555,52.43231892],[13.27974003,52.43228498],[13.27966426,52.43211925],[13.27958955,52.43195582],[13.27951482,52.43179234],[13.27943758,52.4316282],[13.27936036,52.43146424],[13.27928329,52.43130037],[13.27923355,52.43119454],[13.27920606,52.43113613],[13.27917889,52.43107817],[13.279129,52.43097217],[13.27911949,52.43093833],[13.27897586,52.43064416],[13.27889855,52.43048002],[13.27880049,52.43027183],[13.27868204,52.43002033],[13.27861726,52.42988274],[13.27859254,52.42983062],[13.27851734,52.42967107],[13.27844041,52.42950783],[13.2783655,52.4293489],[13.2782867,52.4291817],[13.27827365,52.42915398],[13.27824562,52.42909447],[13.27820411,52.42901007],[13.27812285,52.42883738],[13.27804231,52.42866613],[13.27795945,52.42849037],[13.27787944,52.42832046],[13.27779817,52.42814769],[13.27771704,52.42797511],[13.27770486,52.4279492],[13.27763591,52.42780237],[13.27762371,52.4277764],[13.27755436,52.42762864],[13.27746468,52.42743756],[13.27733637,52.42716481],[13.27731717,52.42712404],[13.27719649,52.42686755],[13.27709142,52.42664261],[13.27706453,52.42658501],[13.27700856,52.4264652],[13.27688927,52.42621493],[13.27671013,52.42583453],[13.27662065,52.42564375],[13.27661008,52.42562136],[13.27659997,52.4255989],[13.27659032,52.42557635],[13.27657705,52.42554656],[13.27656465,52.42551722],[13.276552,52.42548732],[13.27653622,52.42545],[13.27650268,52.42535627],[13.27647537,52.42527656],[13.27638198,52.42500391],[13.27632164,52.42482768],[13.27626133,52.42465158],[13.2762011,52.42447594],[13.27614076,52.4242998],[13.27611057,52.42421167],[13.27608066,52.42412421],[13.27602021,52.42394753],[13.27591007,52.42361535],[13.27582452,52.42337817],[13.27574583,52.42314392],[13.27567196,52.42292779],[13.27553521,52.42253066],[13.27548203,52.42237613],[13.27540373,52.42214773],[13.27536618,52.42204452],[13.27529314,52.42183183],[13.27523307,52.42165694],[13.27517246,52.42148052],[13.27511209,52.42130475],[13.27505156,52.42112855],[13.27499153,52.42095377],[13.2749245,52.4207586],[13.27487045,52.42060127],[13.27473288,52.42019461],[13.27463667,52.41991363],[13.27462882,52.41988578],[13.27456545,52.41971321],[13.27449599,52.41951103],[13.27448537,52.4194801],[13.27443308,52.41931412],[13.27438047,52.41916567],[13.27437674,52.4191547],[13.27422274,52.41870616],[13.2741278,52.41842936],[13.2741129,52.41838142],[13.27409781,52.41833725],[13.27403515,52.41816191],[13.27397868,52.41799628],[13.27392455,52.41783752],[13.27389542,52.41775208],[13.27386715,52.41766915],[13.27381307,52.41751049],[13.27375403,52.41733598],[13.27374443,52.41730782],[13.27369653,52.41716865],[13.27363964,52.4170018],[13.27358073,52.41683459],[13.27353244,52.41669482],[13.27345718,52.41647122],[13.27340907,52.41633187],[13.27322577,52.41579792],[13.27311276,52.41546871],[13.27306752,52.41533683],[13.27303736,52.41524867],[13.27300706,52.4151606],[13.27298894,52.41510144],[13.27294863,52.41498564],[13.27288736,52.41480962],[13.27288601,52.41480574],[13.27284591,52.41469056],[13.27280769,52.41478436],[13.27276384,52.41477273],[13.27262878,52.41440404],[13.27220757,52.41325497],[13.27220652,52.41325212],[13.27220294,52.41323384],[13.2722006,52.41321548],[13.27219949,52.41319709],[13.27219961,52.41317868],[13.27249188,52.41248279],[13.27302407,52.41121557],[13.273062,52.41112526],[13.27338021,52.41036757],[13.27351663,52.41004248],[13.27352651,52.41001915],[13.27354103,52.40998513],[13.27356231,52.40993522],[13.27364307,52.40974153],[13.27353736,52.40970967],[13.27330533,52.40963699],[13.27324507,52.40961857],[13.27304204,52.40955649],[13.27294866,52.4095288],[13.27287169,52.40950512],[13.272778,52.40947932],[13.27273547,52.40946778],[13.27266018,52.40944729],[13.27258471,52.40942705],[13.27250907,52.40940707],[13.27244075,52.4093904],[13.27237221,52.40937406],[13.27230345,52.40935808],[13.27223449,52.40934244],[13.27216565,52.40932681],[13.27209658,52.40931155],[13.27202731,52.40929665],[13.27195782,52.40928212],[13.27188826,52.40926789],[13.27181852,52.40925403],[13.27174858,52.40924051],[13.27167847,52.40922736],[13.2716439,52.40922106],[13.27160926,52.40921491],[13.27157456,52.40920889],[13.27151507,52.40919822],[13.27145528,52.40918816],[13.27139524,52.4091787],[13.27137797,52.40917585],[13.27136066,52.40917313],[13.27134328,52.40917054],[13.27126543,52.40915848],[13.27118745,52.40914677],[13.27110932,52.40913543],[13.27103767,52.40912529],[13.27096585,52.40911561],[13.27089387,52.40910638],[13.27082174,52.40909762],[13.27076206,52.40909064],[13.27070226,52.40908406],[13.27064234,52.40907785],[13.27063618,52.40907707],[13.27063,52.4090763],[13.27062384,52.40907554],[13.27056941,52.40906953],[13.27051487,52.40906388],[13.27046023,52.40905859],[13.2704055,52.40905368],[13.27017038,52.40903347],[13.26946121,52.4089784],[13.26897835,52.4089391],[13.26820132,52.40887852],[13.26763969,52.40883473],[13.26748613,52.4088227],[13.26754805,52.40840032],[13.26760935,52.40798083],[13.26766085,52.40762925],[13.26768932,52.40743522],[13.26769315,52.40743337],[13.26769767,52.40743221],[13.26770251,52.40743182],[13.26770736,52.40743224],[13.26771184,52.40743342],[13.26819879,52.40765128],[13.26819632,52.40753885],[13.26821584,52.40746935],[13.26829256,52.40719693],[13.26830456,52.40712884],[13.26835498,52.40705503],[13.26836574,52.40703861],[13.26837651,52.40702219],[13.26838725,52.40700579],[13.26841642,52.40695975],[13.26844188,52.40691294],[13.26846735,52.40686612],[13.26849283,52.40681929],[13.26851309,52.40677151],[13.26853332,52.40672374],[13.26855357,52.40667598],[13.26857003,52.40662765],[13.26865181,52.4063831],[13.26873072,52.40614681],[13.26885104,52.40578662],[13.26860409,52.40576188],[13.2686367,52.40567122],[13.268672,52.40554057],[13.26869474,52.40545436],[13.26875582,52.40522386],[13.26876433,52.4052246],[13.26878534,52.40522664],[13.2688679,52.40493833],[13.26898385,52.40453482],[13.26910352,52.40443695],[13.2690009,52.40446217],[13.26895843,52.4044633],[13.26898792,52.4043529],[13.2690139,52.40423573],[13.26925415,52.40423394],[13.27005927,52.40418919],[13.27092229,52.4042174],[13.27199764,52.40431652],[13.27265709,52.40448098],[13.2741979,52.40478952],[13.27481794,52.40495941],[13.27542667,52.40510477],[13.27556925,52.40513881],[13.27581684,52.40519793],[13.27707406,52.40582794],[13.27779971,52.40617222],[13.28014239,52.40726349],[13.28035139,52.40736494],[13.28387237,52.40931496],[13.28527844,52.41009727],[13.28816038,52.41169835],[13.29016965,52.41281969],[13.29036976,52.41298193],[13.29322526,52.41456116],[13.29553403,52.41575201],[13.29675296,52.41625256],[13.29677455,52.41623482],[13.29680069,52.41619968],[13.29688406,52.41607984],[13.29690424,52.41605086],[13.29692072,52.41602719],[13.29709161,52.41577721],[13.29709529,52.41546026],[13.2969583,52.41505017],[13.29672382,52.41474217],[13.29635153,52.41459195],[13.29604327,52.41452746],[13.29593279,52.41450434],[13.29612198,52.41433255],[13.29623649,52.41422857],[13.29625371,52.41418504],[13.2962722,52.41416699],[13.29643604,52.41400703],[13.2965998,52.41384716],[13.29694309,52.41351201],[13.29709944,52.41335937],[13.29725563,52.41320688],[13.29726975,52.41319313],[13.29741236,52.41305386],[13.29755443,52.41291515],[13.2975684,52.41290245],[13.2977329,52.41275298],[13.29789765,52.41260327],[13.29806231,52.41245363],[13.29838495,52.41216042],[13.29844432,52.41210648],[13.29845254,52.41209901],[13.29852447,52.41203365],[13.29862093,52.41195354],[13.2986461,52.41193265],[13.29866037,52.41192079],[13.29871638,52.41186944],[13.29872177,52.41186444],[13.29952716,52.41112257],[13.30109307,52.40967571],[13.30110901,52.40965979],[13.30111838,52.40965062],[13.30119714,52.40958412],[13.30120726,52.40957645],[13.30132795,52.40946922],[13.30152335,52.40929559],[13.30166003,52.40917411],[13.30171071,52.40912863],[13.30196119,52.40890651],[13.30208558,52.40879586],[13.30211061,52.40877362],[13.30217728,52.40871441],[13.30219496,52.40869657],[13.30222754,52.40866913],[13.3022968,52.40860757],[13.3023258,52.40858246],[13.30256985,52.40836556],[13.30264234,52.40830114],[13.30285446,52.40811347],[13.30285681,52.40811058],[13.30296477,52.40801472],[13.30304834,52.40794036],[13.30313148,52.40786653],[13.30320883,52.40779782],[13.3034095,52.40761861],[13.30344504,52.40758782],[13.30347926,52.407556],[13.30355567,52.40748962],[13.30378862,52.40728257],[13.30384781,52.40722576],[13.30399875,52.40708104],[13.30416243,52.40692387],[13.30427518,52.40681569],[13.30436278,52.40673164],[13.30460916,52.40649524],[13.30468848,52.40641907],[13.3047536,52.40635653],[13.30481939,52.4062928],[13.30524323,52.40588677],[13.30530417,52.4058271],[13.30547493,52.40566166],[13.30578853,52.40536178],[13.30582182,52.40532873],[13.30604539,52.40511591],[13.30610274,52.40506072],[13.30631307,52.40486006],[13.30666269,52.40452527],[13.30670056,52.40448915],[13.30684837,52.40434811],[13.30689277,52.40430699],[13.3072252,52.40399028],[13.30771138,52.40353194],[13.30824896,52.40299998],[13.3082773,52.40297193],[13.3083585,52.40288717],[13.30836868,52.40288078],[13.30849575,52.40274495],[13.30881489,52.40240378],[13.30892069,52.40229068],[13.30899834,52.40220766],[13.30916474,52.40202977],[13.30930262,52.40188238],[13.30945135,52.40172337],[13.30951438,52.40165598],[13.30960024,52.40156429],[13.30965325,52.40151459],[13.30975474,52.40141736],[13.30976523,52.40140716],[13.30991099,52.40126883],[13.30993832,52.40124243],[13.31005639,52.40112916],[13.31009691,52.40109125],[13.31025549,52.40094034],[13.31046838,52.40073718],[13.31060283,52.40060984],[13.31062799,52.40058511],[13.31078414,52.40044298],[13.31091281,52.40032587],[13.31128995,52.39995528],[13.31149916,52.39973037],[13.31199556,52.39919923],[13.31206439,52.3991054],[13.3129113,52.39975847],[13.31381127,52.40045185],[13.31395518,52.40052529],[13.31413743,52.40061933],[13.31420731,52.400648],[13.31433652,52.40070091],[13.31449768,52.40076703],[13.31466586,52.40083605],[13.31485073,52.40091185],[13.31629487,52.40147443],[13.3171727,52.40183854],[13.31804133,52.40219642],[13.31836118,52.4023246],[13.31849818,52.40239946],[13.31867944,52.40246994],[13.31899873,52.40259397],[13.31964025,52.40282399],[13.31983694,52.40289451],[13.32064166,52.40317312],[13.32084496,52.40324347],[13.32184301,52.40363491],[13.32278809,52.40399816],[13.32360828,52.40431669],[13.323915,52.40443583],[13.32473378,52.40475021],[13.32492344,52.4048225],[13.32573212,52.40513091],[13.32624069,52.40532443],[13.32693493,52.40558888],[13.32710073,52.40564655],[13.3271069,52.40564862],[13.32727884,52.40570847],[13.3272935,52.40571354],[13.32736226,52.40573842],[13.32899649,52.40633136],[13.3302465,52.40679525],[13.33072083,52.40697096],[13.33087459,52.40702796],[13.33199871,52.40744632],[13.33210748,52.40748667],[13.33282837,52.4077568],[13.33301612,52.40782745],[13.33383816,52.40813603],[13.33482018,52.40849587],[13.33551877,52.40874319],[13.33566976,52.40879991],[13.33572325,52.40881999],[13.33664852,52.40916762],[13.33767536,52.40955836],[13.33854814,52.40989184],[13.33890317,52.4100275],[13.34038697,52.41061731],[13.34155038,52.4110779],[13.3420737,52.41128326],[13.34221338,52.41134011],[13.34255066,52.41145353],[13.34280391,52.41153871],[13.34307183,52.41162912],[13.34334723,52.41172172],[13.34331049,52.41172218],[13.34307548,52.41172503],[13.34293614,52.41172721],[13.34295955,52.41181363],[13.34296541,52.4118389],[13.34301904,52.41204653],[13.34305805,52.41219724],[13.34306838,52.41223734],[13.34307789,52.4123577],[13.34308239,52.41241154],[13.34308568,52.41244803],[13.34309291,52.41253693],[13.34309808,52.41260011],[13.3430935,52.41271972],[13.3430901,52.41281264],[13.34308658,52.41290546],[13.34308162,52.41303494],[13.34308548,52.41309903],[13.34309556,52.41326747],[13.34309756,52.41330045],[13.3430548,52.41345978],[13.34305133,52.4134727],[13.34288194,52.4138528],[13.34274207,52.41416664],[13.34318508,52.41434357],[13.34367733,52.41454021],[13.34384797,52.41460811],[13.34392129,52.4146374],[13.3440181,52.41467608],[13.34418147,52.41474136],[13.34452743,52.4148796],[13.34503245,52.41508148],[13.34504726,52.41508735],[13.34521967,52.4151557],[13.34537502,52.41522103],[13.34547129,52.41525483],[13.34553386,52.41527769],[13.34543292,52.41529434],[13.34537613,52.41530364],[13.34519266,52.41533438],[13.34516456,52.41533908],[13.3450299,52.41536834],[13.3447457,52.4154301],[13.34446195,52.4154917],[13.34417775,52.41555349],[13.34398393,52.41559553],[13.34378287,52.41563854],[13.34360979,52.41567686],[13.34327997,52.41574851],[13.34296118,52.41581766],[13.34272057,52.41586993],[13.34267459,52.41587993],[13.34254674,52.4159077],[13.34228358,52.41596494],[13.34189385,52.41604956],[13.34167189,52.41609773],[13.34128945,52.41616978],[13.34130398,52.41614968],[13.34039448,52.41632059],[13.34031582,52.41642426],[13.34019965,52.41657736],[13.34008141,52.41673318],[13.33996583,52.41688621],[13.33984766,52.4170427],[13.33974028,52.41718511],[13.33972137,52.41721021],[13.33959391,52.41737932],[13.33946864,52.41754547],[13.33934142,52.41771425],[13.33921612,52.41788046],[13.33909062,52.41804695],[13.3389638,52.41821516],[13.33883807,52.41838195],[13.33871203,52.41854916],[13.33869355,52.41857366],[13.33858553,52.41871694],[13.33846819,52.4188726],[13.33830591,52.41908785],[13.33828683,52.41911316],[13.33821226,52.41920844],[13.33816615,52.41926971],[13.33804591,52.41942892],[13.33792204,52.41959732],[13.3378415,52.41970453],[13.33775979,52.41981329],[13.33764376,52.41996772],[13.33752605,52.42012436],[13.33740999,52.42027883],[13.33729274,52.42043429],[13.33716812,52.42059919],[13.33705198,52.42075285],[13.33692468,52.42092129],[13.33678219,52.42109952],[13.33658083,52.42136575],[13.33648696,52.42149151],[13.33632637,52.42170312],[13.33617736,52.42189964],[13.33605488,52.4220611],[13.33589681,52.42226956],[13.33577834,52.42242565],[13.3355743,52.42269456],[13.33563399,52.42273766],[13.33524909,52.42280344],[13.33492597,52.42285871],[13.33440408,52.42294798],[13.33401913,52.42301478],[13.33372427,52.42306594],[13.33353408,52.42323654],[13.33352767,52.42328358],[13.33351999,52.42333054],[13.33351103,52.42337741],[13.33350078,52.42342419],[13.33348912,52.42347084],[13.33347619,52.42351737],[13.33346198,52.42356376],[13.33344649,52.42360999],[13.33343333,52.42364687],[13.33341919,52.42368361],[13.33340409,52.42372022],[13.33338804,52.42375667],[13.33337104,52.42379295],[13.33335354,52.42382916],[13.3333352,52.42386521],[13.33331602,52.4239011],[13.33329601,52.42393682],[13.33327517,52.42397235],[13.33318762,52.4240966],[13.33365373,52.42421053],[13.33390083,52.42427214],[13.33430534,52.42437365],[13.33448263,52.42441731],[13.33432658,52.42465273],[13.334217,52.42481836],[13.33417289,52.42488502],[13.33410593,52.42498605],[13.33399501,52.42515265],[13.33388454,52.42531927],[13.33382216,52.4254161],[13.33371882,52.42556923],[13.33368967,52.42570575],[13.3338625,52.42574891],[13.33375978,52.42590083],[13.3336211,52.42610589],[13.33348454,52.42630775],[13.33336641,52.42648218],[13.33325353,52.42664926],[13.33309286,52.42688939],[13.3335874,52.42701309],[13.33385627,52.42722845],[13.33336731,52.42710599],[13.33318644,52.42737421],[13.33293457,52.42774771],[13.33274454,52.42803082],[13.332649,52.42817315],[13.3325386,52.42833923],[13.33244192,52.42848313],[13.33234571,52.42862632],[13.33225376,52.42876194],[13.3321431,52.42892679],[13.33203292,52.42909094],[13.33194826,52.42921709],[13.33179126,52.42945027],[13.3317822,52.42946382],[13.33186708,52.42948511],[13.33192471,52.42949959],[13.33192396,52.42950057],[13.33199017,52.42951691],[13.33199072,52.42951608],[13.33209849,52.42954342],[13.3320979,52.42954432],[13.3321638,52.42956087],[13.33239481,52.42961893],[13.33272461,52.42970189],[13.33259637,52.42993001],[13.33244946,52.43021116],[13.33230858,52.43047778],[13.33230612,52.43048252],[13.33229074,52.43051193],[13.33220551,52.43067328],[13.3321424,52.43079397],[13.33207665,52.43091842],[13.33206365,52.43094388],[13.33203776,52.43099312],[13.33201651,52.43103355],[13.33194116,52.43117663],[13.33192299,52.43121136],[13.33184531,52.43135127],[13.33172477,52.4315688],[13.33147966,52.43200966],[13.33135139,52.43224035],[13.33211893,52.43276106],[13.33209222,52.43277573],[13.33195484,52.43285142],[13.3313741,52.43317664],[13.3312286,52.43325679],[13.33076303,52.43350771],[13.3307568,52.43351596],[13.33064233,52.43348386],[13.33051642,52.4336621],[13.33045085,52.43375504],[13.33035671,52.43388844],[13.330278,52.43400001],[13.33026538,52.43401789],[13.33039392,52.43406558],[13.33030424,52.43421642],[13.33010006,52.43456],[13.32996412,52.43478846],[13.32957835,52.43543741],[13.32935639,52.43581056],[13.32924893,52.43599124],[13.32915567,52.43615051],[13.32905905,52.43632074],[13.32886828,52.436642],[13.32859559,52.43710852],[13.32847971,52.43730657],[13.32823035,52.43775958],[13.32791935,52.43843146],[13.32779157,52.43870827],[13.32777878,52.43873602],[13.32775887,52.43877927],[13.32774607,52.43880709],[13.32767206,52.43896814],[13.32761096,52.43911087],[13.32752419,52.43932885],[13.32746318,52.43948223],[13.32738866,52.43966964],[13.32728797,52.43992236],[13.32707785,52.44000513],[13.32719134,52.44006593],[13.32744558,52.44020215],[13.32749178,52.4402269],[13.32765266,52.44031303],[13.32760716,52.44034437],[13.32822899,52.44067988],[13.32844961,52.44079892],[13.3285068,52.44082977],[13.32845396,52.44086604],[13.32829326,52.44097633],[13.32802308,52.44116177],[13.32799062,52.44118407],[13.32797293,52.44119622],[13.32795671,52.44120913],[13.32794099,52.44122225],[13.32792603,52.4412357],[13.32791187,52.44124947],[13.32790102,52.44126096],[13.32789069,52.44127263],[13.32788088,52.44128447],[13.3278716,52.44129646],[13.32786196,52.44130967],[13.32785295,52.44132304],[13.32784455,52.44133656],[13.32783278,52.44135837],[13.32782267,52.44138048],[13.32781426,52.44140286],[13.32780757,52.44142546],[13.32780259,52.44144822],[13.32779934,52.44147109],[13.32779782,52.44149403],[13.32779805,52.44151699],[13.32780004,52.44153992],[13.32780375,52.44156277],[13.3278092,52.44158549],[13.32781717,52.44162461],[13.32786002,52.44184191],[13.32786352,52.44185976],[13.32796672,52.44238314],[13.32797214,52.44241061],[13.32800726,52.44258908],[13.32801281,52.44261741],[13.32801907,52.4426487],[13.32802202,52.44265887],[13.32802554,52.44266897],[13.32802959,52.442679],[13.32803512,52.44268875],[13.32804159,52.44269827],[13.32804896,52.44270755],[13.32805499,52.44271432],[13.32806156,52.4427209],[13.32806867,52.44272726],[13.32807629,52.4427334],[13.32808402,52.44273954],[13.32809235,52.44274537],[13.32810125,52.44275089],[13.32811069,52.44275605],[13.32815186,52.44277844],[13.32827479,52.44284606],[13.32865355,52.44294266],[13.3287832,52.44297576],[13.32883893,52.44298996],[13.3285981,52.4430718],[13.32852529,52.44338427],[13.32847062,52.44361877],[13.32812231,52.44401852],[13.32805713,52.44399931],[13.32771253,52.4442459],[13.32770644,52.44425025],[13.32762471,52.44431149],[13.32742905,52.44423448],[13.32740566,52.44422525],[13.32729292,52.44418088],[13.32727445,52.44417198],[13.3272551,52.44416264],[13.32724672,52.44415859],[13.32720453,52.44413824],[13.3269427,52.44403819],[13.32675937,52.44395673],[13.32663024,52.44389935],[13.3266063,52.44389517],[13.32606672,52.4436199],[13.3256881,52.44342234],[13.32565328,52.4434044],[13.32552229,52.4434827],[13.32493281,52.44383488],[13.32462636,52.44401796],[13.32421662,52.44426273],[13.32392343,52.44443783],[13.32387106,52.44446911],[13.32376323,52.44453351],[13.32325354,52.44488976],[13.32318958,52.44493445],[13.32310588,52.44488962],[13.32309175,52.44488205],[13.32285094,52.44475189],[13.32247245,52.44476403],[13.32235164,52.44491709],[13.32206528,52.44528646],[13.32193797,52.44544852],[13.32180934,52.44561229],[13.32159698,52.44588434],[13.32134318,52.44620425],[13.32125323,52.44631869],[13.32112476,52.44648188],[13.3209658,52.44668581],[13.32094474,52.44671173],[13.32080242,52.446852],[13.32058267,52.4470672],[13.32051544,52.44715244],[13.32040906,52.44728729],[13.32022893,52.44751562],[13.32000639,52.44779784],[13.31995389,52.44792841],[13.31998778,52.44793428],[13.32002117,52.44794111],[13.32005402,52.44794888],[13.32008622,52.4479576],[13.32011773,52.44796721],[13.32014845,52.44797772],[13.32017835,52.4479891],[13.32020734,52.44800132],[13.32023537,52.44801435],[13.32026236,52.44802818],[13.32037225,52.44808353],[13.32013791,52.44849539],[13.32009889,52.44864433],[13.3200916,52.44867389],[13.32005881,52.44880676],[13.31996542,52.44909407],[13.31990139,52.44916526],[13.3197933,52.44931111],[13.31958125,52.44943062],[13.31969047,52.4495035],[13.31938828,52.44966251],[13.31936069,52.44965327],[13.31921611,52.4498185],[13.31876235,52.45033708],[13.31862069,52.45049896],[13.31859326,52.45053035],[13.31848661,52.45067996],[13.318383,52.45092225],[13.31830059,52.45111498],[13.31814883,52.4512559],[13.31798124,52.45141151],[13.31813393,52.45148199],[13.31781451,52.4517789],[13.31744829,52.45160512],[13.31719574,52.45148526],[13.31692176,52.45135525],[13.31578143,52.45081406],[13.3157538,52.45080028],[13.3157264,52.45078634],[13.3156992,52.45077224],[13.31567526,52.45075868],[13.31565143,52.45074505],[13.31562771,52.45073135],[13.31558271,52.45073096],[13.31553107,52.45077333],[13.31552398,52.4507787],[13.31552366,52.45074087],[13.31549712,52.45072813],[13.31527308,52.4505442],[13.31516204,52.45052154],[13.31520188,52.45062751],[13.31520921,52.4507159],[13.31521591,52.45097791],[13.31521459,52.45099599],[13.31521594,52.45103383],[13.3152176,52.45108946],[13.31522302,52.45123892],[13.31522857,52.45139153],[13.31523237,52.45149665],[13.31523558,52.45160928],[13.31523592,52.45162189],[13.31523767,52.45168348],[13.31524703,52.45201212],[13.31525311,52.45210145],[13.31525897,52.45227347],[13.31529321,52.45240261],[13.31530992,52.45245649],[13.31530983,52.45246016],[13.31532999,52.45254035],[13.31550069,52.45316119],[13.3155215,52.45323688],[13.31552832,52.45326169],[13.31543534,52.45330126],[13.31532404,52.45326693],[13.31525268,52.45324476],[13.31496382,52.45315498],[13.31477642,52.45309672],[13.31480994,52.45305673],[13.31484459,52.45301557],[13.31466713,52.45296018],[13.31350572,52.45260575],[13.31299137,52.45283112],[13.31281939,52.45279283],[13.31261021,52.45296811],[13.3124188,52.45312849],[13.31230208,52.4531804],[13.31209504,52.45327403],[13.31188239,52.45336962],[13.31167947,52.45346083],[13.31160917,52.45348114],[13.31135785,52.45355352],[13.31122062,52.45359216],[13.31115718,52.4536186],[13.31080382,52.45376566],[13.31075869,52.4537845],[13.31032594,52.45396469],[13.31025139,52.45400224],[13.31023912,52.4540111],[13.31018754,52.45404404],[13.31013382,52.45408927],[13.31012819,52.45409555],[13.31011187,52.45411365],[13.310088,52.45414011],[13.31005143,52.45419447],[13.31004044,52.45421702],[13.31003455,52.45422911],[13.31002948,52.45423962],[13.30996359,52.45428758],[13.30992789,52.45431357],[13.30962286,52.45455171],[13.30922465,52.45492004],[13.30908462,52.45504957],[13.3089821,52.45514439],[13.30872628,52.455381],[13.30871284,52.45539344],[13.30869079,52.45541382],[13.30859217,52.45550504],[13.30853706,52.45555602],[13.30898916,52.45578213],[13.30907199,52.45582357],[13.30914097,52.45585807],[13.30912206,52.4558687],[13.30886018,52.45601574],[13.30787647,52.45699174],[13.30780637,52.4570423],[13.30765145,52.45715402],[13.30763111,52.45716871],[13.30759522,52.45719458],[13.30758963,52.45719861],[13.30758353,52.45720301],[13.30744055,52.45730613],[13.3070764,52.45756875],[13.30683565,52.45774237],[13.30681614,52.45775644],[13.30682194,52.45777368],[13.30686836,52.45800631],[13.30689236,52.45812658],[13.30709556,52.45893192]]]]}}