{"type":"FeatureCollection","metadata":{"planCount":14,"definition":"Plan-sheet extraction status is machine_extracted or verified. Boundaries are official Berlin vector plan scopes. Processed does not imply legal verification.","inventorySource":"data/exports/lichterfelde-relevant-bplans.csv","geometrySource":"Local D1 planning_zones official_vector scope"},"features":[{"type":"Feature","id":"XII-113","properties":{"planKey":"XII-113","title":"Bebauungsplan XII-113","planType":"qualified_bplan","status":"in_force","effectiveFrom":null,"processingStatus":"machine_extracted","ocrStatus":"complete","planSheetUrl":"https://fbinter.stadt-berlin.de/ScansBPlan/06_SZ/XII-113_Abz.pdf","intersectingParcels":432,"controllingParcels":304,"geometrySource":"official_vector","geometryConfidence":"official"},"geometry":{"type":"Polygon","coordinates":[[[13.30649265,52.40762158],[13.30684573,52.40804448],[13.30692547,52.40821194],[13.3071482,52.40862989],[13.30730322,52.40892077],[13.30749925,52.40934679],[13.3076644,52.40980617],[13.30769829,52.40996147],[13.30771045,52.41009531],[13.30767432,52.41025042],[13.30764714,52.41037879],[13.30769488,52.41043378],[13.30767258,52.41049259],[13.30587808,52.41023887],[13.30533764,52.4101706],[13.30485725,52.41010508],[13.30168363,52.40965876],[13.30154026,52.40981625],[13.30146383,52.40979597],[13.30147085,52.4097331],[13.30132858,52.40974074],[13.30108852,52.40965712],[13.30383489,52.40719201],[13.30522732,52.40585378],[13.30614126,52.4071354],[13.30615381,52.40721571],[13.30649265,52.40762158]]]}},{"type":"Feature","id":"XII-301","properties":{"planKey":"XII-301","title":"Bebauungsplan XII-301","planType":"qualified_bplan","status":"in_force","effectiveFrom":null,"processingStatus":"machine_extracted","ocrStatus":"complete","planSheetUrl":"https://fbinter.stadt-berlin.de/ScansBPlan/06_SZ/XII-301_Abz.pdf","intersectingParcels":454,"controllingParcels":301,"geometrySource":"official_vector","geometryConfidence":"official"},"geometry":{"type":"Polygon","coordinates":[[[13.28500594,52.41732577],[13.28961332,52.41854207],[13.29003057,52.41865109],[13.28995484,52.41876914],[13.28966307,52.41918773],[13.28727626,52.42258999],[13.28676887,52.4224551],[13.28292971,52.42146558],[13.28224313,52.42128685],[13.28080873,52.42091631],[13.28080062,52.42093847],[13.2807787,52.4209702],[13.27812295,52.42028354],[13.27462151,52.41935911],[13.27451956,52.41933368],[13.27446293,52.41938084],[13.27415461,52.41854402],[13.27412149,52.41844247],[13.27426381,52.41847931],[13.27939166,52.41980655],[13.27953172,52.4198428],[13.27959327,52.41975342],[13.28146796,52.41703018],[13.28245117,52.41641316],[13.28292118,52.4166759],[13.28297494,52.41670369],[13.28302983,52.41673064],[13.28308527,52.41675717],[13.2831418,52.41678283],[13.28319885,52.41680804],[13.28325693,52.41683237],[13.28331551,52.41685625],[13.28337505,52.41687921],[13.28343507,52.41690171],[13.283496,52.41692327],[13.28355737,52.41694436],[13.2836196,52.41696449],[13.28368223,52.41698414],[13.28374566,52.41700281],[13.28380947,52.417021],[13.28387402,52.41703818],[13.28500594,52.41732577]]]}},{"type":"Feature","id":"6-30","properties":{"planKey":"6-30","title":"Bebauungsplan 6-30","planType":"qualified_bplan","status":"in_force","effectiveFrom":"2024-07-31","processingStatus":"machine_extracted","ocrStatus":"not_needed","planSheetUrl":"https://fbinter.stadt-berlin.de/ScansBPlan/06_SZ/6-30_Abz.pdf","intersectingParcels":155,"controllingParcels":121,"geometrySource":"official_vector","geometryConfidence":"official"},"geometry":{"type":"Polygon","coordinates":[[[13.31393398,52.4110792],[13.31205061,52.4111425],[13.31051315,52.41121933],[13.31048436,52.41096596],[13.30970036,52.41087171],[13.30955865,52.4108675],[13.30856235,52.40894017],[13.30846637,52.40895954],[13.30783114,52.4071423],[13.3077991,52.40714502],[13.30668047,52.40450764],[13.30674175,52.40444547],[13.31014713,52.40395763],[13.31078295,52.40562456],[13.31093817,52.40560876],[13.31194352,52.40820338],[13.31279834,52.40857133],[13.31329918,52.40798858],[13.31610732,52.40791604],[13.31620708,52.40819665],[13.32129145,52.40809785],[13.32126028,52.40775517],[13.32392823,52.40768946],[13.32477813,52.40801876],[13.32447644,52.40829917],[13.3223954,52.41013685],[13.32198855,52.41051054],[13.32185683,52.41048413],[13.32182567,52.41046039],[13.32174068,52.41045426],[13.32162092,52.41044562],[13.31914716,52.41066174],[13.31926067,52.41115809],[13.31925297,52.41136062],[13.31937398,52.41147041],[13.31924976,52.41161915],[13.31907108,52.41155121],[13.31872152,52.41141176],[13.31751048,52.41103215],[13.31715212,52.41097066],[13.31673286,52.41093113],[13.31627576,52.41092462],[13.31557925,52.41095944],[13.31393398,52.4110792]],[[13.3139012,52.41086646],[13.31391449,52.41095739],[13.31393398,52.4110792],[13.3139012,52.41086646]]]}},{"type":"Feature","id":"6-9B","properties":{"planKey":"6-9B","title":"Bebauungsplan 6-9B","planType":"simple_bplan","status":"in_force","effectiveFrom":null,"processingStatus":"machine_extracted","ocrStatus":"complete","planSheetUrl":"https://fbinter.stadt-berlin.de/ScansBPlan/06_SZ/6-9B_Abz.pdf","intersectingParcels":183,"controllingParcels":107,"geometrySource":"official_vector","geometryConfidence":"official"},"geometry":{"type":"Polygon","coordinates":[[[13.30667858,52.44294969],[13.30409558,52.44339206],[13.30246517,52.44494479],[13.30062661,52.44414795],[13.30064008,52.44413467],[13.30065155,52.44412071],[13.300662,52.44410646],[13.30067034,52.44409169],[13.30067759,52.44407671],[13.30068263,52.4440614],[13.30068656,52.44404596],[13.30068822,52.44403037],[13.30068875,52.44401476],[13.300687,52.44399917],[13.30068412,52.44398365],[13.300679,52.44396835],[13.30067277,52.4439532],[13.30066435,52.44393845],[13.30065488,52.44392394],[13.30064333,52.44391001],[13.30063077,52.4438964],[13.30061629,52.44388353],[13.30060088,52.44387106],[13.30058373,52.44385948],[13.30056574,52.44384838],[13.30054622,52.4438383],[13.30348509,52.441167],[13.30563806,52.44205738],[13.30752933,52.4404076],[13.30949626,52.44120468],[13.31204022,52.44243622],[13.31096245,52.44297547],[13.30900039,52.4447321],[13.30779702,52.4432523],[13.30784469,52.44323673],[13.30788983,52.44321857],[13.30793358,52.44319917],[13.30797425,52.44317742],[13.30801326,52.44315455],[13.3080487,52.44312962],[13.30808224,52.44310372],[13.30811179,52.44307606],[13.30813924,52.44304761],[13.30816234,52.44301775],[13.30818318,52.44298727],[13.3081994,52.44295577],[13.30821326,52.44292384],[13.3082223,52.44289128],[13.3082289,52.4428585],[13.30823059,52.44282549],[13.30822982,52.44279246],[13.30822413,52.44275962],[13.30821599,52.44272696],[13.30820303,52.4426949],[13.30818768,52.44266323],[13.30816768,52.44263255],[13.30814542,52.44260245],[13.30811876,52.44257372],[13.30808999,52.44254576],[13.30805717,52.44251951],[13.30802243,52.44249421],[13.30798406,52.44247095],[13.307944,52.44244878],[13.3079008,52.44242893],[13.30785617,52.4424103],[13.30780895,52.44239424],[13.30776057,52.4423795],[13.30771021,52.44236752],[13.307659,52.44235695],[13.30760643,52.44234928],[13.30755334,52.44234308],[13.30749955,52.44233986],[13.30744558,52.44233813],[13.30739157,52.44233942],[13.30733771,52.44234222],[13.3072845,52.44234799],[13.30723177,52.44235524],[13.30718034,52.4423654],[13.30712972,52.44237698],[13.30708103,52.44239132],[13.30703347,52.44240701],[13.30698844,52.44242528],[13.30694482,52.44244478],[13.30690429,52.44246663],[13.30686543,52.44248959],[13.30683015,52.44251461],[13.30679677,52.44254059],[13.3067674,52.44256831],[13.30674013,52.44259683],[13.30671722,52.44262675],[13.30669657,52.44265727],[13.30668055,52.44268881],[13.3066669,52.44272077],[13.30665807,52.44275335],[13.30665167,52.44278615],[13.30665019,52.44281917],[13.30665117,52.44285219],[13.30665707,52.44288502],[13.30666542,52.44291765],[13.30667858,52.44294969]]]}},{"type":"Feature","id":"XII-137","properties":{"planKey":"XII-137","title":"Bebauungsplan XII-137","planType":"qualified_bplan","status":"in_force","effectiveFrom":null,"processingStatus":"machine_extracted","ocrStatus":"complete","planSheetUrl":"https://fbinter.stadt-berlin.de/ScansBPlan/06_SZ/XII-137_Abz.pdf","intersectingParcels":116,"controllingParcels":66,"geometrySource":"official_vector","geometryConfidence":"official"},"geometry":{"type":"Polygon","coordinates":[[[13.29551738,52.419117],[13.29527841,52.41883725],[13.29592003,52.41812141],[13.29641801,52.41758759],[13.2967221,52.41735044],[13.29692082,52.41719998],[13.29705731,52.41717861],[13.2971623,52.41714387],[13.29735499,52.41700547],[13.29747281,52.41683907],[13.29876531,52.41733679],[13.2992163,52.4175386],[13.29902347,52.41769633],[13.29894863,52.41766229],[13.29868713,52.41788419],[13.29890888,52.41796059],[13.29925934,52.4181307],[13.29948146,52.41828717],[13.29918991,52.41843315],[13.29889836,52.41857913],[13.29927808,52.41885859],[13.29979882,52.41924182],[13.30069931,52.41990451],[13.30025575,52.42018944],[13.30000032,52.42030614],[13.30070945,52.42080258],[13.2992935,52.42152084],[13.29888277,52.42121404],[13.29865861,52.42133061],[13.29684841,52.42001837],[13.29649269,52.41975762],[13.29625188,52.41972312],[13.2961358,52.41965514],[13.29560195,52.41917039],[13.29551738,52.419117]]]}},{"type":"Feature","id":"XII-69","properties":{"planKey":"XII-69","title":"Bebauungsplan XII-69","planType":"qualified_bplan","status":"in_force","effectiveFrom":null,"processingStatus":"machine_extracted","ocrStatus":"complete","planSheetUrl":"https://fbinter.stadt-berlin.de/ScansBPlan/06_SZ/XII-69_Abz.pdf","intersectingParcels":128,"controllingParcels":65,"geometrySource":"official_vector","geometryConfidence":"official"},"geometry":{"type":"Polygon","coordinates":[[[13.27954957,52.43212149],[13.27880644,52.43052806],[13.27746179,52.42764453],[13.27754629,52.42762835],[13.27853218,52.42743962],[13.27881649,52.42805248],[13.27992062,52.4278643],[13.28021593,52.42845292],[13.28100666,52.42829616],[13.28131886,52.42896965],[13.28203334,52.42898937],[13.28201609,52.42950428],[13.28181504,52.42950245],[13.28182237,52.43013201],[13.28164821,52.43009664],[13.28162229,52.43022838],[13.28105712,52.43030223],[13.28148878,52.43146576],[13.28046955,52.43161826],[13.28061222,52.43194859],[13.27954957,52.43212149]]]}},{"type":"Feature","id":"XII-24","properties":{"planKey":"XII-24","title":"Bebauungsplan XII-24","planType":"qualified_bplan","status":"in_force","effectiveFrom":null,"processingStatus":"machine_extracted","ocrStatus":"complete","planSheetUrl":"https://fbinter.stadt-berlin.de/ScansBPlan/06_SZ/XII-24_Abz.pdf","intersectingParcels":120,"controllingParcels":65,"geometrySource":"official_vector","geometryConfidence":"official"},"geometry":{"type":"Polygon","coordinates":[[[13.28862412,52.43292446],[13.28814954,52.4329065],[13.28724056,52.43281672],[13.28716764,52.43287792],[13.28700707,52.43287284],[13.28710326,52.4324811],[13.28913756,52.42948884],[13.29250367,52.42939595],[13.29279199,52.43284235],[13.29267569,52.43284643],[13.29259336,52.43279564],[13.28862412,52.43292446]]]}},{"type":"Feature","id":"XII-48","properties":{"planKey":"XII-48","title":"Bebauungsplan XII-48","planType":"qualified_bplan","status":"in_force","effectiveFrom":null,"processingStatus":"machine_extracted","ocrStatus":"complete","planSheetUrl":"https://fbinter.stadt-berlin.de/ScansBPlan/06_SZ/XII-48_Abz.pdf","intersectingParcels":91,"controllingParcels":63,"geometrySource":"official_vector","geometryConfidence":"official"},"geometry":{"type":"Polygon","coordinates":[[[13.30087898,52.42379373],[13.30320187,52.42576021],[13.30083491,52.42582658],[13.30076633,52.42493734],[13.29861375,52.42496398],[13.29856865,52.42385698],[13.30087898,52.42379373]]]}},{"type":"Feature","id":"XII-68","properties":{"planKey":"XII-68","title":"Bebauungsplan XII-68","planType":"qualified_bplan","status":"in_force","effectiveFrom":null,"processingStatus":"machine_extracted","ocrStatus":"complete","planSheetUrl":"https://fbinter.stadt-berlin.de/ScansBPlan/06_SZ/XII-68_Abz.pdf","intersectingParcels":95,"controllingParcels":50,"geometrySource":"official_vector","geometryConfidence":"official"},"geometry":{"type":"Polygon","coordinates":[[[13.27954957,52.43212149],[13.28061222,52.43194859],[13.28046955,52.43161826],[13.28148878,52.43146576],[13.28181529,52.4322879],[13.28244064,52.43219428],[13.28292001,52.43230733],[13.28319144,52.43188131],[13.28353744,52.43209482],[13.28318501,52.43270789],[13.28323559,52.43302319],[13.28256357,52.43305545],[13.28237201,52.43306029],[13.2821864,52.43305975],[13.28200377,52.43305382],[13.28185337,52.43344777],[13.28171504,52.43342936],[13.28160101,52.43369375],[13.28124876,52.43390162],[13.28101979,52.4337929],[13.28076195,52.43398484],[13.28045926,52.43401373],[13.28020878,52.43316736],[13.28000498,52.43314121],[13.27954957,52.43212149]]]}},{"type":"Feature","id":"XII-39","properties":{"planKey":"XII-39","title":"Bebauungsplan XII-39","planType":"qualified_bplan","status":"in_force","effectiveFrom":null,"processingStatus":"machine_extracted","ocrStatus":"complete","planSheetUrl":"https://fbinter.stadt-berlin.de/ScansBPlan/06_SZ/XII-39_Abz.pdf","intersectingParcels":67,"controllingParcels":47,"geometrySource":"official_vector","geometryConfidence":"official"},"geometry":{"type":"Polygon","coordinates":[[[13.30507434,52.42543573],[13.30510557,52.42553036],[13.30518075,52.42565663],[13.30526322,52.42579342],[13.30537282,52.42592199],[13.30546987,52.42607011],[13.30558187,52.42619797],[13.3056964,52.42631534],[13.30580371,52.42641318],[13.30594779,52.42651712],[13.30606993,52.42660149],[13.30617203,52.42666069],[13.30605143,52.42673965],[13.30590358,52.42683516],[13.30562647,52.42701673],[13.30497735,52.42729335],[13.30320187,52.42576021],[13.30290053,52.42550496],[13.30316949,52.42499824],[13.30398762,52.4251751],[13.30479744,52.42517427],[13.30506868,52.42517541],[13.30506844,52.42523462],[13.30506779,52.42532316],[13.30507434,52.42543573]]]}},{"type":"Feature","id":"6-1B","properties":{"planKey":"6-1B","title":"Bebauungsplan 6-1B","planType":"simple_bplan","status":"in_force","effectiveFrom":null,"processingStatus":"machine_extracted","ocrStatus":"complete","planSheetUrl":"https://fbinter.stadt-berlin.de/ScansBPlan/06_SZ/6-1B_Abz.pdf","intersectingParcels":86,"controllingParcels":40,"geometrySource":"official_vector","geometryConfidence":"official"},"geometry":{"type":"Polygon","coordinates":[[[13.28780531,52.41531951],[13.28636618,52.41621141],[13.28602504,52.4164243],[13.28574838,52.41657657],[13.28573786,52.4166066],[13.28560122,52.41668588],[13.28546458,52.41676517],[13.28520744,52.41690246],[13.28508382,52.4169871],[13.28501996,52.41705464],[13.28497965,52.41709367],[13.28494164,52.41712072],[13.28484097,52.41714069],[13.28387478,52.41687869],[13.28372418,52.41684121],[13.28359649,52.4167975],[13.28348591,52.41675944],[13.28340043,52.41672704],[13.28330818,52.41668274],[13.28321585,52.41664122],[13.27971838,52.41463098],[13.27792896,52.41358901],[13.27753526,52.41335822],[13.2772294,52.41316758],[13.27718428,52.41313159],[13.27713523,52.41309758],[13.2770843,52.41306462],[13.27702978,52.41303388],[13.27697357,52.4130043],[13.27691417,52.41297715],[13.27647956,52.41261921],[13.27629647,52.41241656],[13.27565165,52.41160027],[13.27535324,52.41123083],[13.27523801,52.41105216],[13.27491092,52.41062319],[13.27466042,52.41034306],[13.2744229,52.41012991],[13.27433328,52.41007535],[13.27427594,52.41004175],[13.27421737,52.41000894],[13.27415821,52.40997654],[13.27409787,52.40994496],[13.27404219,52.40991644],[13.27398556,52.40988863],[13.27392846,52.40986117],[13.27387046,52.40983444],[13.27382179,52.40981245],[13.27377251,52.40979097],[13.27372293,52.40976975],[13.27367277,52.40974905],[13.27272007,52.40947212],[13.27199245,52.40929755],[13.27134231,52.40915888],[13.27043921,52.40904916],[13.26750003,52.40882159],[13.26769926,52.40742223],[13.26794716,52.40676644],[13.26810688,52.40656055],[13.26832559,52.40592642],[13.26837788,52.40579857],[13.26840901,52.40564715],[13.26851332,52.40566633],[13.26874311,52.40522998],[13.26877478,52.40522802],[13.26890956,52.40477106],[13.26894824,52.40446277],[13.26919946,52.40444029],[13.26948633,52.40447485],[13.2698323,52.40447605],[13.27116945,52.40448906],[13.271869,52.40457714],[13.2720268,52.40460635],[13.27214614,52.40463805],[13.27235916,52.40470661],[13.27254663,52.40476465],[13.27283668,52.40481515],[13.27314379,52.40486831],[13.2740263,52.40507471],[13.27457604,52.40523309],[13.27472539,52.40525183],[13.27496887,52.40524994],[13.27523782,52.40526902],[13.27529311,52.40532631],[13.27543376,52.40538715],[13.27555148,52.40537312],[13.27567682,52.40538788],[13.27621099,52.40603813],[13.27629019,52.40613619],[13.27642596,52.40622003],[13.27773815,52.40686266],[13.27823546,52.40703676],[13.27814988,52.40715159],[13.2781306,52.40720908],[13.27813476,52.40727815],[13.27814236,52.40750834],[13.27813227,52.40759463],[13.27814079,52.40770687],[13.27815962,52.40830251],[13.27817397,52.40886936],[13.27820366,52.40928089],[13.27863803,52.40968498],[13.27998843,52.41096118],[13.28034346,52.41128735],[13.28120532,52.41178187],[13.2823576,52.41244699],[13.28303207,52.41284313],[13.28329432,52.41300214],[13.28361286,52.41318433],[13.28388929,52.41333762],[13.28392617,52.41343556],[13.28394613,52.41389597],[13.2845459,52.41421995],[13.28537045,52.41468557],[13.28543621,52.41470014],[13.28552091,52.41470039],[13.28562003,52.41466039],[13.28667707,52.41393601],[13.28670191,52.41387722],[13.2868832,52.41393646],[13.28708497,52.4141558],[13.28721039,52.4141974],[13.28734673,52.4144536],[13.2878817,52.41504714],[13.28789343,52.4150603],[13.28790313,52.41507406],[13.28791179,52.41508809],[13.28791829,52.41510254],[13.2879237,52.41511716],[13.28792688,52.41513202],[13.28792893,52.41514696],[13.28792873,52.41516195],[13.28792739,52.41517692],[13.28792381,52.41519174],[13.28791911,52.41520646],[13.28791221,52.41522084],[13.28790424,52.41523501],[13.28789416,52.41524868],[13.28788307,52.41526204],[13.28787,52.41527473],[13.287856,52.41528703],[13.28784019,52.41529849],[13.28782355,52.41530949],[13.28780531,52.41531951]]]}},{"type":"Feature","id":"XII-181","properties":{"planKey":"XII-181","title":"Bebauungsplan XII-181","planType":"qualified_bplan","status":"in_force","effectiveFrom":null,"processingStatus":"machine_extracted","ocrStatus":"complete","planSheetUrl":"https://fbinter.stadt-berlin.de/ScansBPlan/06_SZ/XII-181_Abz.pdf","intersectingParcels":132,"controllingParcels":38,"geometrySource":"official_vector","geometryConfidence":"official"},"geometry":{"type":"Polygon","coordinates":[[[13.33517887,52.41837512],[13.3351191,52.41835569],[13.33506606,52.41830596],[13.33509364,52.41826786],[13.33523208,52.41831517],[13.33532695,52.41820632],[13.33506765,52.4176997],[13.33570271,52.4175831],[13.33583969,52.41785309],[13.33628728,52.41798599],[13.33609993,52.41821732],[13.33685921,52.41842824],[13.33577928,52.41987841],[13.33432984,52.4194888],[13.33517887,52.41837512]]]}},{"type":"Feature","id":"XII-9","properties":{"planKey":"XII-9","title":"Bebauungsplan XII-9","planType":"qualified_bplan","status":"in_force","effectiveFrom":null,"processingStatus":"machine_extracted","ocrStatus":"complete","planSheetUrl":"https://fbinter.stadt-berlin.de/ScansBPlan/06_SZ/XII-9_Abz.pdf","intersectingParcels":83,"controllingParcels":38,"geometrySource":"official_vector","geometryConfidence":"official"},"geometry":{"type":"Polygon","coordinates":[[[13.31471272,52.41848419],[13.31547113,52.41775984],[13.31829685,52.41884981],[13.31871114,52.41847334],[13.31887534,52.41854022],[13.31893002,52.41896523],[13.31658544,52.41915643],[13.31662061,52.41930754],[13.31601057,52.41988485],[13.31544173,52.41927096],[13.31471272,52.41848419]]]}},{"type":"Feature","id":"XII-26","properties":{"planKey":"XII-26","title":"Bebauungsplan XII-26","planType":"qualified_bplan","status":"in_force","effectiveFrom":null,"processingStatus":"machine_extracted","ocrStatus":"complete","planSheetUrl":"https://fbinter.stadt-berlin.de/ScansBPlan/06_SZ/XII-26_Abz.pdf","intersectingParcels":64,"controllingParcels":37,"geometrySource":"official_vector","geometryConfidence":"official"},"geometry":{"type":"Polygon","coordinates":[[[13.31205383,52.416187],[13.31054189,52.4165357],[13.30889134,52.41396181],[13.30860725,52.41383417],[13.30889447,52.41352544],[13.30901547,52.41350346],[13.30890276,52.4133247],[13.30949654,52.41318688],[13.30955276,52.41329577],[13.31013045,52.41317603],[13.31113088,52.41483917],[13.31149637,52.41538387],[13.31205383,52.416187]]]}}]}
