{
  "type": "FeatureCollection",
  "schemaVersion": "bplan-georeferenced-zones-v1",
  "generatedAt": "2026-08-01T14:30:11.982Z",
  "planKey": "I-203",
  "sourcePdf": "data/documents/bplans/I-203--plan_sheet.pdf",
  "sourcePage": 1,
  "render": {
    "dpi": 200,
    "width": 6622,
    "height": 4677,
    "renderer": "pdftoppm",
    "sourceScopeGeometry": "data/import/bplans-fixed.ndjson#I-203:scope"
  },
  "controlPoints": [
    {
      "label": "scope_north_west",
      "pixel": [
        1922.288003,
        2438.088745
      ],
      "world": [
        13.38366749,
        52.51840415
      ]
    },
    {
      "label": "scope_north_east",
      "pixel": [
        2901.840781,
        2340.350183
      ],
      "world": [
        13.38550186,
        52.51851856
      ]
    },
    {
      "label": "scope_south_west",
      "pixel": [
        1981.445311,
        3030.404333
      ],
      "world": [
        13.38378612,
        52.51772662
      ]
    },
    {
      "label": "scope_south_east",
      "pixel": [
        2961.070044,
        2930.458005
      ],
      "world": [
        13.38561118,
        52.51789468
      ]
    }
  ],
  "traceVersion": "manual_trace_plan_scope_wfs_controls_v1",
  "geometryReviewStatus": "manually_verified",
  "completeness": {
    "scopePartitionComplete": true,
    "landUseComplete": true,
    "densityComplete": true,
    "heightComplete": true,
    "buildingFormComplete": true,
    "otherConstraintsComplete": false,
    "notes": {
      "resolved": [
        "WA, public park and street-traffic land-use partition",
        "GF 11500 sqm absolute project cap",
        "TH 52.0 m above NHN",
        "building envelope",
        "TG1 underground-garage envelope",
        "textual constraints 1-8"
      ],
      "remaining": [
        "exact spatial extent of area A for the 3 m utility easement in textual constraint 9"
      ]
    }
  },
  "rules": [
    {
      "zoneKey": "I-203:WA",
      "ruleType": "floor_area_max_sqm",
      "numericValue": 11500,
      "unit": "m2",
      "legalCitation": "Planzeichnung: GF 11.500 m²",
      "interpretation": "Absolute maximum floor area for the complete WA development area. It is not GFZ and must not be duplicated as a parcel-level allowance."
    },
    {
      "zoneKey": "I-203:WA",
      "ruleType": "absolute_elevation_max_m",
      "numericValue": 52,
      "unit": "m_NHN",
      "legalCitation": "Planzeichnung: TH 52,0 m ü. NHN",
      "interpretation": "Maximum eaves elevation above NHN; this is not a relative building height."
    },
    {
      "zoneKey": "I-203:WA",
      "ruleType": "use_restriction",
      "textValue": "§ 4(3) nos. 4 and 5 BauNVO exceptions excluded",
      "legalCitation": "Textliche Festsetzung 1",
      "interpretation": "Garden establishments and filling stations are not components of the plan."
    },
    {
      "zoneKey": "I-203:WA",
      "ruleType": "use_restriction",
      "textValue": "Freie Berufe above the first full storey only exceptionally permissible",
      "legalCitation": "Textliche Festsetzung 2"
    },
    {
      "zoneKey": "I-203:WA",
      "ruleType": "use_restriction",
      "textValue": "§ 4(3) no. 2 BauNVO uses generally permissible on the first full storey",
      "legalCitation": "Textliche Festsetzung 3"
    },
    {
      "zoneKey": "I-203:WA",
      "ruleType": "parking",
      "textValue": "Surface parking spaces and garages prohibited on non-buildable land; underground garages excepted",
      "legalCitation": "Textliche Festsetzung 4"
    },
    {
      "ruleType": "other",
      "textValue": "Internal division of street-traffic land is not fixed",
      "legalCitation": "Textliche Festsetzung 5"
    },
    {
      "ruleType": "other",
      "textValue": "Fuel restricted to natural gas or heating oil EL, or fuels with no higher SOx, NOx and dust emissions per energy content",
      "legalCitation": "Textliche Festsetzung 6"
    },
    {
      "zoneKey": "I-203:WA",
      "ruleType": "landscaping",
      "textValue": "Roofs below 15 degrees must be greened, except technical installations and lighting surfaces",
      "legalCitation": "Textliche Festsetzung 7"
    },
    {
      "zoneKey": "I-203:TG1",
      "ruleType": "landscaping",
      "numericValue": 0.8,
      "unit": "m",
      "textValue": "minimum soil cover above underground garages",
      "legalCitation": "Textliche Festsetzung 8"
    },
    {
      "zoneKey": "I-203:WA",
      "ruleType": "other",
      "numericValue": 3,
      "unit": "m",
      "textValue": "utility easement width within area A between Dorotheenstraße and Mittelstraße",
      "legalCitation": "Textliche Festsetzung 9",
      "interpretation": "The rule is preserved, but area A has not yet been traced as a separate overlay."
    }
  ],
  "transform": {
    "longitude": [
      0.0000018684171028259412,
      5.727122051775446e-9,
      13.380064244941094
    ],
    "latitude": [
      3.278675120114982e-8,
      -0.0000011039918951499111,
      52.52101997375645
    ]
  },
  "qa": {
    "controlPointCount": 4,
    "residualsMetres": [
      1.4300683097367144,
      1.4353467411910907,
      1.4296444012908205,
      1.4349228192347616
    ],
    "rmsResidualMetres": 1.432498014768601,
    "maxResidualMetres": 1.4353467411910907,
    "maximumRmsResidualMetres": 2,
    "maximumResidualMetres": 5,
    "passed": true
  },
  "features": [
    {
      "type": "Feature",
      "geometry": {
        "type": "Polygon",
        "coordinates": [
          [
            [
              13.383703320561317,
              52.51831808035643
            ],
            [
              13.384474747739901,
              52.51837578096048
            ],
            [
              13.384563300767164,
              52.51787497283875
            ],
            [
              13.383791885042823,
              52.517815064250904
            ],
            [
              13.383703320561317,
              52.51831808035643
            ]
          ]
        ]
      },
      "bbox": [
        13.383703320561317,
        52.517815064250904,
        13.384563300767164,
        52.51837578096048
      ],
      "properties": {
        "zoneKey": "I-203:WA",
        "label": "Allgemeines Wohngebiet (WA)",
        "landUseCode": "WA",
        "confidence": "medium",
        "rules": [
          {
            "ruleType": "permitted_uses",
            "textValue": "[\"residential buildings\",\"shops, restaurants and non-disruptive craft businesses serving the area\",\"church, cultural, social, health and sports facilities\",\"lodging businesses and administrative facilities where exceptionally permitted\",\"other non-disruptive commercial businesses generally permitted on the first full storey and otherwise exceptionally\",\"rooms for liberal professions generally through the first full storey and above it exceptionally\"]",
            "legalCitation": "BauNVO 1990 § 4 with textual constraints 1-3",
            "interpretation": "Garden establishments and filling stations are excluded by textual constraint 1."
          }
        ],
        "planKey": "I-203",
        "geometryMethod": "georeferenced_scan_affine_v1",
        "sourcePdf": "data/documents/bplans/I-203--plan_sheet.pdf",
        "sourcePage": 1
      }
    },
    {
      "type": "Feature",
      "geometry": {
        "type": "Polygon",
        "coordinates": [
          [
            [
              13.384474747739901,
              52.51837578096048
            ],
            [
              13.385343292517978,
              52.51844291441886
            ],
            [
              13.385428080075426,
              52.5179475606831
            ],
            [
              13.384563300767164,
              52.51787497283875
            ],
            [
              13.384474747739901,
              52.51837578096048
            ]
          ]
        ]
      },
      "bbox": [
        13.384474747739901,
        52.51787497283875,
        13.385428080075426,
        52.51844291441886
      ],
      "properties": {
        "zoneKey": "I-203:public-park",
        "label": "Öffentliche Parkanlage",
        "landUseCode": "PUBLIC_PARK",
        "confidence": "medium",
        "rules": [
          {
            "ruleType": "permitted_uses",
            "textValue": "[\"public park and associated public open-space functions\"]",
            "legalCitation": "Plan drawing: ÖFFENTLICHE PARKANLAGE"
          }
        ],
        "planKey": "I-203",
        "geometryMethod": "georeferenced_scan_affine_v1",
        "sourcePdf": "data/documents/bplans/I-203--plan_sheet.pdf",
        "sourcePage": 1
      }
    },
    {
      "type": "Feature",
      "geometry": {
        "type": "Polygon",
        "coordinates": [
          [
            [
              13.383669843954271,
              52.518391369120806
            ],
            [
              13.385499497357134,
              52.51853138805432
            ],
            [
              13.38561354194463,
              52.517881855736675
            ],
            [
              13.383783766743962,
              52.51773939708822
            ],
            [
              13.383669843954271,
              52.518391369120806
            ]
          ],
          [
            [
              13.383703320561317,
              52.51831808035643
            ],
            [
              13.383791885042823,
              52.517815064250904
            ],
            [
              13.384563300767164,
              52.51787497283875
            ],
            [
              13.384474747739901,
              52.51837578096048
            ],
            [
              13.383703320561317,
              52.51831808035643
            ]
          ],
          [
            [
              13.384474747739901,
              52.51837578096048
            ],
            [
              13.384563300767164,
              52.51787497283875
            ],
            [
              13.385428080075426,
              52.5179475606831
            ],
            [
              13.385343292517978,
              52.51844291441886
            ],
            [
              13.384474747739901,
              52.51837578096048
            ]
          ]
        ]
      },
      "bbox": [
        13.383669843954271,
        52.51773939708822,
        13.38561354194463,
        52.51853138805432
      ],
      "properties": {
        "zoneKey": "I-203:traffic",
        "label": "Straßenverkehrsfläche",
        "landUseCode": "TRAFFIC",
        "confidence": "medium",
        "rules": [
          {
            "ruleType": "permitted_uses",
            "textValue": "[\"public street and traffic infrastructure\"]",
            "legalCitation": "Plan drawing: Straßenverkehrsfläche"
          }
        ],
        "planKey": "I-203",
        "geometryMethod": "georeferenced_scan_affine_v1",
        "sourcePdf": "data/documents/bplans/I-203--plan_sheet.pdf",
        "sourcePage": 1
      }
    },
    {
      "type": "Feature",
      "geometry": {
        "type": "Polygon",
        "coordinates": [
          [
            [
              13.383806482292192,
              52.51832081364691
            ],
            [
              13.384472755936677,
              52.51836027104957
            ],
            [
              13.3845365718285,
              52.517879063704235
            ],
            [
              13.383875735522901,
              52.517837853464655
            ],
            [
              13.383806482292192,
              52.51832081364691
            ]
          ]
        ]
      },
      "bbox": [
        13.383806482292192,
        52.517837853464655,
        13.3845365718285,
        52.51836027104957
      ],
      "properties": {
        "zoneKey": "I-203:building-envelope",
        "label": "Überbaubare Grundstücksfläche (Baugrenze)",
        "confidence": "medium",
        "rules": [
          {
            "ruleType": "buildable_envelope",
            "textValue": "Principal buildings must remain within the traced blue building line.",
            "interpretation": "This is an overlapping constraint geometry, not a land-use zone."
          }
        ],
        "planKey": "I-203",
        "geometryMethod": "georeferenced_scan_affine_v1",
        "sourcePdf": "data/documents/bplans/I-203--plan_sheet.pdf",
        "sourcePage": 1
      }
    },
    {
      "type": "Feature",
      "geometry": {
        "type": "Polygon",
        "coordinates": [
          [
            [
              13.383997541111082,
              52.518235539722774
            ],
            [
              13.38431980284204,
              52.51825255032186
            ],
            [
              13.38434820661693,
              52.51796523063024
            ],
            [
              13.384025590596659,
              52.51794951774724
            ],
            [
              13.383997541111082,
              52.518235539722774
            ]
          ]
        ]
      },
      "bbox": [
        13.383997541111082,
        52.51794951774724,
        13.38434820661693,
        52.51825255032186
      ],
      "properties": {
        "zoneKey": "I-203:TG1",
        "label": "Tiefgaragenfläche TG1",
        "confidence": "medium",
        "rules": [
          {
            "ruleType": "parking",
            "textValue": "TG1 underground-garage envelope",
            "interpretation": "The traced inner blue envelope is designated TG1. Textual constraint 8 requires at least 0.8 m of soil above underground garages."
          }
        ],
        "planKey": "I-203",
        "geometryMethod": "georeferenced_scan_affine_v1",
        "sourcePdf": "data/documents/bplans/I-203--plan_sheet.pdf",
        "sourcePage": 1
      }
    }
  ]
}
